UNKNOWN                 
1 87541U          25323.37875164  .00000314  00000+0  69301-3 0  9990
2 87541  99.7024 178.4686 0060008 319.5997 221.6644 13.35578713578913
UNKNOWN                 
1 87553U          25322.66062650  .00006400  00000+0  19125-2 0  9992
2 87553  65.6729  54.1441 0702957 238.1202 114.9604 13.53212850587995
UNKNOWN                 
1 87557U          25320.30509904  .00006795  00000+0  15090-1 0  9996
2 87557 101.7188 172.3361 0056636  60.1852 300.4877 13.27437914561520
UNKNOWN                 
1 87561U          25314.14701256 -.00000021  00000+0  18194-3 0  9997
2 87561 102.0163  12.5839 0173762 352.9387  31.9604 12.32150507538424
UNKNOWN                 
1 87565U          25317.41667348  .00003256  00000+0  17722-2 0  9994
2 87565  99.9445 306.1651 0170916 250.5690 107.6935 14.05898411612311
UNKNOWN                 
1 87569U          25323.23789025 -.00000034  00000+0  77337-4 0  9994
2 87569 101.9883 139.6876 0055537 299.5843 242.9530 12.68539863555485
UNKNOWN                 
1 87587U          25316.84937763  .00000453  00000+0  15185-3 0  9993
2 87587  74.0227 158.1675 0020864 204.4811 155.5355 14.40033305629506
UNKNOWN                 
1 87590U          25307.05751299  .00000732  00000+0  43607-3 0  9998
2 87590  98.7933 345.0708 0027121  38.2754 352.5660 14.10246965148658
UNKNOWN                 
1 87616U          25315.14599987  .00000672  00000+0  24216-2 0  9997
2 87616  66.0337 210.6947 0633614 152.7869 357.3498 12.46847795532298
UNKNOWN                 
1 87624U          25323.57106308  .00008341  00000+0  13118-2 0  9993
2 87624  98.6777 259.5433 0098347 321.7700  37.6557 14.69591035576874
UNKNOWN                 
1 87650U          25319.21663345  .00014197  00000+0  28971-2 0  9996
2 87650 100.2700 127.9016 0032671   0.5352 359.5871 14.60737160 75744
UNKNOWN                 
1 87672U          25322.67733357  .00003527  00000+0  14200-2 0  9990
2 87672  70.8603  58.6480 0062088 308.3488  51.2070 14.27684676621022
UNKNOWN                 
1 87681U          25322.27731220  .00001423  00000+0  15320-2 0  9990
2 87681  66.7356 156.6204 0157906 178.3008 181.8631 13.71027080598485
UNKNOWN                 
1 87690U          25319.56739137  .00004799  00000+0  74575-3 0  9990
2 87690  65.7949  64.6246 0577992  61.5559 304.2502 14.00104958603579
UNKNOWN                 
1 87706U          25323.28061308  .00003831  00000+0  68269-3 0  9999
2 87706  98.6730 145.6129 0105553 340.9291 199.1355 14.64108257575084
UNKNOWN                 
1 87725U          25323.58212640  .00058144  00000+0  54191-2 0  9995
2 87725  82.8668 276.9399 0017721 115.0788 245.2275 14.93850277630464
UNKNOWN                 
1 87730U          25316.08883252  .00000139  00000+0  12968-3 0  9999
2 87730  82.9442 256.7759 0031412  89.0760 271.3995 13.74497763581122
UNKNOWN                 
1 87737U          25313.60253414  .00000076  00000+0  12433-3 0  9999
2 87737  99.3770 186.1152 0132391 276.2484  82.3598 13.72332957599319
UNKNOWN                 
1 87764U          25322.75946885  .00008470  00000+0  14516-2 0  9995
2 87764  65.6742 228.4432 0361252  89.4652 307.2882 14.34325169615686
UNKNOWN                 
1 87771U          25318.78734865  .00000192  00000+0  57475-3 0  9999
2 87771 100.7451 154.3454 0119835  65.5503 295.8057 13.19506386531408
UNKNOWN                 
1 87782U          25321.91542914  .00003257  00000+0  10851-1 0  9992
2 87782 102.3320 190.2530 0064883 289.5826  69.8273 13.00255850564766
UNKNOWN                 
1 87843U          25321.07729920  .00002519  00000+0  58301-2 0  9994
2 87843  99.6654  77.3897 0233072  66.3765 296.1634 13.16431565560784
UNKNOWN                 
1 87845U          25322.15765395  .00002048  00000+0  38823-2 0  9996
2 87845  98.8519 284.4773 0576836 310.4581  44.7565 12.88841326562047
UNKNOWN                 
1 87878U          25319.54909557  .00005016  00000+0  15819-2 0  9999
2 87878  99.1562  77.1413 0034768 346.4973  13.5280 14.40432249607385
UNKNOWN                 
1 87884U          25323.02014034  .00000636  00000+0  37113-3 0  9996
2 87884  98.7339  67.6965 0154894 134.7450 226.6447 14.05962985615035
UNKNOWN                 
1 87934U          25304.86397561  .00000094  00000+0  85338-4 0  9993
2 87934  82.9364 330.6631 0031579 150.2212  28.1460 13.73099371598562
UNKNOWN                 
1 87991U          25323.42929388  .00002666  00000+0  53443-2 0  9994
2 87991  28.6284 357.9584 0884397 239.6997 111.3136 12.34869548520116
UNKNOWN                 
1 89003U          25319.55414108  .00000717  00000+0  25466-3 0  9998
2 89003  74.0493  64.4739 0014016 133.4339 226.7983 14.36170170627642
UNKNOWN                 
1 89005U          25323.27777078  .00002637  00000+0  60494-3 0  9995
2 89005  97.8400 154.1853 0193129 103.7344 258.5428 14.45420815530709
UNKNOWN                 
1 89029U          25322.46021411  .00006866  00000+0  64556-3 0  9995
2 89029  98.0520 221.1018 0024492  47.6725 312.6564 14.94014581647451
UNKNOWN                 
1 89101U          25321.62412823 -.00000258  00000+0 -64297-3 0  9997
2 89101 100.4592 259.1299 0146637 163.7934 196.7934 13.03998502551571
UNKNOWN                 
1 89132U          25323.62417331  .00002620  00000+0  35671-2 0  9998
2 89132  63.4090  77.2568 2931675 319.6397  21.9566  8.86278390323067
UNKNOWN                 
1 89146U          25321.74864236  .00005044  00000+0  93680-3 0  9992
2 89146  98.2448 250.4889 0094514 132.7691 228.1510 14.62758818625229
UNKNOWN                 
1 89161U          25323.31769438  .00077151  00000+0  21776-2 0  9996
2 89161  97.6624 338.0368 0041859 142.7165 217.6997 15.35205839544987
UNKNOWN                 
1 89172U          25310.55922806  .00030689  00000+0  50523-2 0  9997
2 89172  82.0637 255.8555 0299972  32.7390 329.2000 14.44728547596666
UNKNOWN                 
1 89177U          25318.61950487  .00000162  00000+0  15739-3 0  9997
2 89177  82.9185 289.9724 0031442 219.0179 140.8708 13.73719805 58961
UNKNOWN                 
1 89183U          25322.71711702  .00000616  00000+0  58072-3 0  9996
2 89183  99.2170 234.3442 0129555 220.6713 138.4709 13.81548073603651
UNKNOWN                 
1 89184U          25321.87328405  .00026086  00000+0  34872-2 0  9997
2 89184  98.3905 185.4832 0007988 212.0404 148.0321 14.79449929488492
UNKNOWN                 
1 89213U          25321.39191092  .00000764  00000+0  51499-3 0  9997
2 89213  98.7806 195.8652 0227174 195.9547 163.4375 13.91554302449146
UNKNOWN                 
1 89251U          25323.45113479  .00005308  00000+0  30878-2 0  9997
2 89251  62.4801  33.8558 2838048  98.5606 294.2873  9.24196079371033
UNKNOWN                 
1 89261U          25321.72387146  .00001589  00000+0  48611-3 0  9992
2 89261  98.1529 317.2144 0011828 232.5328 127.4788 14.43045649530206
UNKNOWN                 
1 89304U          25322.48426478  .00008512  00000+0  11128-1 0  9990
2 89304  84.3673 110.4079 2843978  17.0176  26.6291  9.02658015436210
UNKNOWN                 
1 89349U          25321.82966018  .00000309  00000+0  10565-2 0  9996
2 89349  90.2466   6.7961 0028225 333.8757  26.0937 12.96233189475520
UNKNOWN                 
1 89379U          25323.28903089  .00005058  00000+0  65318-2 0  9992
2 89379 100.4829 336.8196 0044658 186.7229 173.3315 13.62458954577582
UNKNOWN                 
1 89395U          25317.36080865  .00000350  00000+0  44311-2 0  9990
2 89395 102.3610 287.2462 0220207 174.5270 350.2300 12.01508003521213
UNKNOWN                 
1 89403U          25323.36491450  .00000481  00000+0  16032-2 0  9997
2 89403  90.2495   5.2784 0026598 276.5585  97.0100 12.98723039474791
UNKNOWN                 
1 89484U          25322.80473546  .00041891  00000+0  33810-1 0  9992
2 89484  84.1146 161.5515 2857709  58.1969 326.6035  9.12602544353255
UNKNOWN                 
1 89493U          25323.12633936  .00003148  00000+0  15628-2 0  9990
2 89493  99.0290  31.6744 0082812 107.8678 253.1548 14.16089705460602
UNKNOWN                 
1 89494U          25320.63580439  .00004491  00000+0  22221-2 0  9992
2 89494  99.0289  29.0390 0083550 114.9165 246.0720 14.16002789460104
